ENSF 291820Z AUTO 28021KT 9999 OVC018/// 12/10 Q1018 W/////
ENSS 291820Z AUTO 09013KT 9999 OVC006/// 07/05 Q1006 RMK WIND 0500FT 08023KT
ENTC 291820Z 01007KT 9999 FEW029 14/09 Q1000 RMK WIND 2600FT 11002KT
ENSB 291820Z 13008KT 070V170 CAVOK 10/03 Q1012 RMK WIND 1400FT 13014KT
ENUN 291820Z AUTO 30021KT //// OVC006/// 10/09 Q1004 W10/S4
ENZV 291820Z 30017KT 9999 FEW014 SCT018 BKN043 14/11 Q1020 NOSIG
ENBS 291820Z 08012KT 9999 SCT005 BKN014 06/04 Q1005
ENTO 291820Z 29009KT 260V320 CAVOK 20/04 Q1011 NOSIG
ENBR 291820Z 29008KT 250V320 9999 SCT015TCU BKN022 13/10 Q1019 NOSIG RMK WIND 1200FT 30015KT
ENAN 291820Z 01006KT CAVOK 13/09 Q1001
ENMS 291820Z 25003KT 220V300 9999 VCSH FEW019 SCT033 BKN053 13/09 Q1002 RMK WIND 412FT 21004KT
ENKR 291820Z 08012KT 9999 BKN049 09/06 Q1003 RMK WIND 731FT 09018KT
ENSO 291820Z 30014KT 9999 SCT015 BKN030 13/12 Q1020
ENWV 291820Z AUTO 29003KT 9999NDV NCD 15/10 Q//// W///S4
ENOV 291820Z 20003KT 140V280 7000 RADZ SCT007 BKN015 11/09 Q1016 RMK WIND RWY 24 VRB03KT WIND 2090FT 28012KT
ENJS 291820Z 27014KT CAVOK 13/10 Q1022 W13/S5
ENHV 291820Z AUTO 11022KT 9999 NCD 13/05 Q1004
ENLA 291820Z AUTO 26006KT 9999NDV NCD 16/10 Q//// W///S4
ENQR 291820Z AUTO 26017KT 9999 BKN024/// 12/10 Q1017 W22///
ENHK 291820Z 13005KT CAVOK 14/07 Q1001
ENDR 291820Z AUTO 28035KT 9999NDV OVC016/// 11/09 Q1009 W///S6
ENVR 291250Z 18014KT 9999 FEW008 SCT017 BKN025 13/10 Q0996
ENGM 291820Z 30008KT 240V350 CAVOK 19/03 Q1009 NOSIG
ENBN 291820Z 27006KT 250V310 9999 FEW008 SCT015 BKN050 13/10 Q1003
ENKB 291820Z 26019KT 9999 FEW009 SCT011 BKN038 11/09 Q1013 RMK WIND 745FT 26026KT
ENHF 291820Z 06010KT CAVOK 16/06 Q1001 RMK WIND 1253FT 10011KT
ENSK 291820Z 27009KT 9999 SCT040 14/09 Q1001
ENCN 291820Z 28012G26KT 240V320 9999 FEW045 17/07 Q1017
ENML 291820Z 26012KT 8000 SHRA BKN019 12/10 Q1014
ENHD 291820Z AUTO 29016KT 9999 FEW014/// SCT020/// OVC041/// 14/10 Q1020
ENHE 291820Z 31028KT 9999 BKN009 10/09 Q1006 W///S5
ENSG 152020Z VRB01KT 9999 FEW/// SCT050 BKN090 12/11 Q1012 RMK WIND 3806FT 25014KT
ENNE 291820Z AUTO 31018KT 9999 FEW007/// FEW010/// BKN035/// 11/10 Q1004 W///S5
ENFL 291820Z 28014KT 9999 -SHRA FEW005 SCT009 BKN013 12/09 Q1017
ENSL 291820Z AUTO 24013KT CAVOK 14/08 Q1022 W12/S4
ENLE 291820Z 27004KT CAVOK 18/09 Q1024 W15/S4
ENQA 291820Z AUTO 28016KT 9999 OVC022/// 12/10 Q1019 W11/S5
ENBV 291820Z 12018KT 9999 BKN006 07/05 Q1006
ENVA 291820Z 27028KT 9999 -DZ BKN019 OVC030 12/09 Q1009 REDZRA RMK WIND 670FT 28027G45KT
ENBL 291820Z 24004KT 190V290 1000 -RA VCFG SCT001 BKN003 09/09 Q1017
ENNM 291820Z 26010KT 220V280 9999 -RA FEW007 SCT010 BKN014 12/10 Q1004
ENEV 291820Z 35004KT 310V050 9999 FEW030 16/09 Q1000 BECMG 24010KT RMK WIND 1400FT 31004KT
ENRS 291750Z 26007KT 9999 FEW014 SCT022 13/10 Q1001
ENOA 291820Z 28016KT 9999 FEW015 BKN030 12/10 Q1019 W///S5
ENSE 291820Z AUTO 33005KT 9999 FEW009/// OVC015/// 12/10 Q1017 W/////
ENLK 291820Z 24003KT 210V270 9999 FEW008 SCT012 14/10 Q1001
ENUG 291820Z AUTO 08017KT 9999NDV NCD 11/08 Q1001 W///S3
ENVD 291820Z 08019KT 9999 BKN007 07/05 Q1004
ENSH 291750Z 22008KT CAVOK 13/10 Q1001 RMK WIND 0150FT 21010KT
ENAT 291820Z 35003KT 290V100 CAVOK 15/08 Q1000 RMK WIND 700FT 05006KT
ENRY 291820Z AUTO 33010KT 300V360 9999 NCD 21/04 Q1011
ENRA 291820Z VRB02KT 9999 FEW017 SCT036 BKN055 13/10 Q1002
ENNA 291820Z 19003KT 140V290 CAVOK 17/07 Q1001 RMK WIND 1800FT 08007KT
ENDU 291820Z 27002KT 9999 -SHRA FEW015 SCT040 BKN050 14/12 Q1000 RMK WIND 1100FT 28003KT WIND 2200FT 01005KT
ENFB 291820Z AUTO 26021KT 9999 BKN013/// BKN036/// 12/10 Q1018 W/////
ENBO 291820Z 28008KT 9999 SCT057 13/11 Q1002 NOSIG
ENRO 291820Z AUTO 29015G29KT 250V310 9999 BKN029/// OVC037/// 10/04 Q1009
ENOL 291820Z 28026KT 9999 SCT015 BKN035 11/08 Q1010 TEMPO 26030G42KT 3000 SHRA BKN012CB
ENST 291820Z 25003KT 170V310 9999 VCSH FEW010TCU SCT014 SCT037 13/10 Q1003 RMK WIND 0300FT 28004KT
ENGC 291820Z 27020KT 9999 SCT019 12/10 Q1018 W10/S5
ENAL 291820Z 25013KT 7000 -DZ SCT007 BKN011 11/10 Q1015
ENQC 291820Z AUTO 26014KT 7000 FEW014/// BKN024/// 13/11 Q1018 W///S5
ENMH 291820Z 10010KT 070V130 CAVOK 08/06 Q1005
ENSD 291820Z 32005KT 280V010 9999 -DZ SCT008 SCT017 BKN030 12/10 Q1016 RMK WIND RWY 26 00000KT WIND 1140FT VRB05KT
ENSR 291820Z VRB01KT 9999 -DZ BKN060 13/09 Q1001 RMK WIND RWY 32 VRB02KT WIND 1119FT 36003KT
ENNO 291420Z 28023KT CAVOK 21/06 Q1008
ENRM 291820Z 31009KT 280V340 9999 -RA FEW006 SCT012 BKN016 12/10 Q1004